     2.100          NAVIGATION                              RINEX VERSION / TYPE
fic2rin                                 10/25/2015 00:10:55 PGM / RUN BY / DATE
                                                            END OF HEADER
28 15 10 24  4  0  0.0  .476549845189D-03  .261479726760D-11  .000000000000D+00
     .230000000000D+02  .278750000000D+02  .385766068705D-08 -.710112007358D+00
     .154040753841D-05  .198193106335D-01  .120103359222D-04  .515370250702D+04
     .532800000000D+06 -.253319740295D-06 -.305096469133D+00  .912696123123D-07
     .989612365007D+00  .168156250000D+03 -.165397059856D+01 -.804283501636D-08
     .145006040084D-09  .100000000000D+01  .186700000000D+04  .000000000000D+00
     .240000000000D+01  .000000000000D+00 -.111758708954D-07  .230000000000D+02
     .525606000000D+06  .400000000000D+01
29 15 10 24  4  0  0.0  .641088467091D-03  .193267624127D-11  .000000000000D+00
     .104000000000D+03  .255000000000D+02  .461304929488D-08  .990641975529D+00
     .126473605633D-05  .849330332130D-03  .424496829510D-05  .515366960144D+04
     .532800000000D+06  .633299350739D-07  .723119936985D+00 -.223517417908D-07
     .974901391002D+00  .304093750000D+03 -.509810870229D+00 -.830570310873D-08
     .199294015681D-09  .100000000000D+01  .186700000000D+04  .000000000000D+00
     .340000000000D+01  .000000000000D+00 -.102445483208D-07  .104000000000D+03
     .525606000000D+06  .400000000000D+01
31 15 10 24  4  0  0.0  .298038590699D-03 -.147792889038D-11  .000000000000D+00
     .430000000000D+02 -.602187500000D+02  .450197323954D-08  .195786594466D+01
    -.290386378765D-05  .820752058644D-02  .778399407864D-05  .515361862946D+04
     .532800000000D+06  .186264514923D-06 -.139224231980D+01  .689178705215D-07
     .973307072158D+00  .233656250000D+03 -.512337082519D+00 -.812105256015D-08
    -.637526555540D-09  .100000000000D+01  .186700000000D+04  .000000000000D+00
     .240000000000D+01  .000000000000D+00 -.135041773319D-07  .430000000000D+02
     .525606000000D+06  .400000000000D+01
32 15 10 24  4  0  0.0 -.497605651617D-05  .117097442853D-10  .000000000000D+00
     .101000000000D+03  .361875000000D+02  .449161566525D-08  .237717522095D+01
     .189989805222D-05  .113525727065D-01  .134818255901D-04  .515367739296D+04
     .532800000000D+06 -.180676579475D-06  .284358638955D+01  .132247805595D-06
     .947242069097D+00  .109406250000D+03  .154893889118D+00 -.799319009131D-08
     .294655130712D-09  .100000000000D+01  .186700000000D+04  .000000000000D+00
     .340000000000D+01  .000000000000D+00 -.325962901115D-08  .101000000000D+03
     .525606000000D+06  .400000000000D+01
32 15 10 24  3 59 44.0 -.497652217746D-05  .117097442853D-10  .000000000000D+00
     .300000000000D+01  .361875000000D+02  .449161566525D-08  .237484168082D+01
     .189989805222D-05  .113525701454D-01  .134818255901D-04  .515367740059D+04
     .532784000000D+06 -.180676579475D-06  .284358651097D+01  .132247805595D-06
     .947242057394D+00  .109406250000D+03  .154893653588D+00 -.799319009131D-08
     .295012288446D-09  .100000000000D+01  .186700000000D+04  .000000000000D+00
     .240000000000D+01  .000000000000D+00 -.325962901115D-08  .300000000000D+01
     .525846000000D+06  .400000000000D+01
 4 15 10 24  3 59 44.0 -.364659354091D-04 -.522959453519D-11  .000000000000D+00
     .000000000000D+00 -.105312500000D+03  .503949562951D-08  .240223334431D+01
    -.554136931896D-05  .119917428819D-01  .713579356670D-05  .515364425850D+04
     .532784000000D+06  .143423676491D-06  .169695693366D+01 -.171363353729D-06
     .940425496977D+00  .228687500000D+03  .111445022914D+01 -.836713423901D-08
    -.430732227440D-09  .100000000000D+01  .186700000000D+04  .000000000000D+00
     .240000000000D+01  .000000000000D+00 -.651925802231D-08  .000000000000D+00
     .528546000000D+06  .400000000000D+01
29 15 10 24  3 59 44.0  .641087535769D-03  .193267624127D-11  .000000000000D+00
     .280000000000D+02  .255000000000D+02  .461304929488D-08  .988309134677D+00
     .126473605633D-05  .849333009683D-03  .424496829510D-05  .515366960335D+04
     .532784000000D+06  .633299350739D-07  .723120071574D+00 -.223517417908D-07
     .974901389539D+00  .304093750000D+03 -.509811872328D+00 -.830570310873D-08
     .199294015681D-09  .100000000000D+01  .186700000000D+04  .000000000000D+00
     .240000000000D+01  .000000000000D+00 -.102445483208D-07  .280000000000D+02
     .529206000000D+06  .400000000000D+01
 3 15 10 24  3 59 44.0  .186986289918D-04 -.204636307899D-11  .000000000000D+00
     .200000000000D+01  .172187500000D+02  .420981821297D-08 -.142967375746D+01
     .776723027229D-06  .478640315123D-03  .134743750095D-04  .515358789253D+04
     .532784000000D+06  .465661287308D-07  .276366292072D+01  .745058059692D-08
     .959593549346D+00  .115531250000D+03 -.281924668332D+01 -.788925719066D-08
     .252153360342D-09  .100000000000D+01  .186700000000D+04  .000000000000D+00
     .240000000000D+01  .000000000000D+00  .186264514923D-08  .200000000000D+01
     .529716000000D+06  .400000000000D+01
23 15 10 24  3 59 44.0 -.140538439155D-03 -.216004991671D-11  .000000000000D+00
     .200000000000D+01  .660625000000D+02  .527414826087D-08 -.270404532975D+01
     .324100255966D-05  .103875194909D-01  .497698783875D-05  .515377938080D+04
     .532784000000D+06 -.521540641785D-07 -.247109501514D+01 -.210478901863D-06
     .947554978497D+00  .280437500000D+03 -.262441595426D+01 -.848428197583D-08
     .400373820034D-09  .100000000000D+01  .186700000000D+04  .000000000000D+00
     .240000000000D+01  .000000000000D+00 -.200234353542D-07  .200000000000D+01
     .531456000000D+06  .400000000000D+01
 3 15 10 24  5 59 44.0  .186841934919D-04 -.204636307899D-11  .000000000000D+00
     .300000000000D+01  .279687500000D+02  .422767609968D-08 -.382104696263D+00
     .150315463543D-05  .477595254779D-03  .138133764267D-04  .515358480072D+04
     .539984000000D+06  .502914190292D-07  .276360613024D+01  .409781932831D-07
     .959595183425D+00  .110312500000D+03 -.281658372037D+01 -.791997275580D-08
     .236081262304D-09  .100000000000D+01  .186700000000D+04  .000000000000D+00
     .240000000000D+01  .000000000000D+00  .186264514923D-08  .300000000000D+01
     .532806000000D+06  .400000000000D+01
 4 15 10 24  5 59 44.0 -.365036539733D-04 -.522959453519D-11  .000000000000D+00
     .600000000000D+01 -.965312500000D+02  .501413743038D-08 -.283075135344D+01
    -.490434467793D-05  .119903531158D-01  .742264091969D-05  .515364677048D+04
     .539984000000D+06  .158324837685D-06  .169689715298D+01 -.502914190292D-07
     .940422430700D+00  .222312500000D+03  .111445165988D+01 -.831677499849D-08
    -.439304013061D-09  .100000000000D+01  .186700000000D+04  .000000000000D+00
     .240000000000D+01  .000000000000D+00 -.651925802231D-08  .600000000000D+01
     .532806000000D+06  .400000000000D+01
23 15 10 24  5 59 44.0 -.140553805977D-03 -.216004991671D-11  .000000000000D+00
     .300000000000D+01  .646875000000D+02  .521378860379D-08 -.165396554418D+01
     .312551856041D-05  .103878801456D-01  .437162816525D-05  .515377831841D+04
     .539984000000D+06  .912696123123D-07 -.247115676052D+01 -.143423676491D-06
     .947558240804D+00  .284250000000D+03 -.262437350623D+01 -.852714090393D-08
     .483948729836D-09  .100000000000D+01  .186700000000D+04  .000000000000D+00
     .240000000000D+01  .000000000000D+00 -.200234353542D-07  .300000000000D+01
     .532806000000D+06  .400000000000D+01
29 15 10 24  5 59 44.0  .641101039946D-03  .193267624127D-11  .000000000000D+00
     .290000000000D+02  .343750000000D+02  .456197573889D-08  .203682402068D+01
     .173039734364D-05  .849372125231D-03  .448524951935D-05  .515367228127D+04
     .539984000000D+06  .540167093277D-07  .723060451810D+00  .298023223877D-07
     .974902817347D+00  .299250000000D+03 -.508143670269D+00 -.828570227561D-08
     .195365280605D-09  .100000000000D+01  .186700000000D+04  .000000000000D+00
     .240000000000D+01  .000000000000D+00 -.102445483208D-07  .290000000000D+02
     .532806000000D+06  .400000000000D+01
 1 15 10 24  6  0  0.0  .299233943224D-05  .795807864051D-12  .000000000000D+00
     .750000000000D+02 -.937812500000D+02  .456519015849D-08 -.263795379085D+01
    -.479258596897D-05  .477341900114D-02  .780262053013D-05  .515365928078D+04
     .540000000000D+06  .316649675369D-07  .172264886628D+01 -.372529029846D-08
     .962650524407D+00  .229125000000D+03  .495228243878D+00 -.819534136886D-08
    -.458590530708D-09  .100000000000D+01  .186700000000D+04  .000000000000D+00
     .240000000000D+01  .000000000000D+00  .512227416039D-08  .750000000000D+02
     .532806000000D+06  .400000000000D+01
 2 15 10 24  6  0  0.0  .593743752688D-03  .125055521494D-11  .000000000000D+00
     .740000000000D+02 -.957812500000D+02  .502949521295D-08 -.205408084958D+01
    -.488571822643D-05  .148894751910D-01  .616349279881D-05  .515365011406D+04
     .540000000000D+06  .154599547386D-06  .168180930202D+01 -.240281224251D-06
     .941327195793D+00  .249593750000D+03 -.222230982801D+01 -.823141430002D-08
    -.309655755548D-09  .100000000000D+01  .186700000000D+04  .000000000000D+00
     .240000000000D+01  .000000000000D+00 -.204890966415D-07  .740000000000D+02
     .532806000000D+06  .400000000000D+01
 5 15 10 24  6  0  0.0 -.181927811354D-03  .386535248253D-11  .000000000000D+00
     .260000000000D+02  .931250000000D+01  .454983237592D-08  .386163031435D+00
     .640749931335D-06  .446978362743D-02  .124480575323D-04  .515367057228D+04
     .540000000000D+06  .558793544769D-07  .275460298713D+01  .782310962677D-07
     .946746256902D+00  .131000000000D+03  .448880874970D+00 -.804783522464D-08
     .158220876249D-09  .100000000000D+01  .186700000000D+04  .000000000000D+00
     .240000000000D+01  .000000000000D+00 -.107102096081D-07  .260000000000D+02
     .532806000000D+06  .400000000000D+01
